{
  "type": "FeatureCollection",
  "features": [
    {
      "type": "Feature",
      "properties": {
        "OBJECT_NAME": "GPS BIIRM-3 (PRN 12)",
        "OBJECT_ID": "2006-052A",
        "EPOCH": "2025-11-29T11:38:48.212736",
        "MEAN_MOTION": 2.00572558,
        "ECCENTRICITY": 0.0087412,
        "INCLINATION": 54.9735,
        "RA_OF_ASC_NODE": 221.9244,
        "ARG_OF_PERICENTER": 87.3049,
        "MEAN_ANOMALY": 273.769,
        "EPHEMERIS_TYPE": 0,
        "CLASSIFICATION_TYPE": "U",
        "NORAD_CAT_ID": 29601,
        "ELEMENT_SET_NO": 999,
        "REV_AT_EPOCH": 13940,
        "BSTAR": 0,
        "MEAN_MOTION_DOT": 3.4e-07,
        "MEAN_MOTION_DDOT": 0,
        "norad_id": 29601,
        "name": "GPS BIIRM-3 (PRN 12)",
        "group": "gps-ops",
        "longitude_deg": NaN,
        "latitude_deg": NaN,
        "alt_km": NaN,
        "orbit_class": "HEO",
        "timestamp": "2025-11-30T08:43:09.297433+00:00"
      },
      "geometry": {
        "type": "Point",
        "coordinates": [
          NaN,
          NaN
        ]
      }
    },
    {
      "type": "Feature",
      "properties": {
        "OBJECT_NAME": "GPS BIIRM-4 (PRN 15)",
        "OBJECT_ID": "2007-047A",
        "EPOCH": "2025-11-29T18:58:26.202720",
        "MEAN_MOTION": 2.00564988,
        "ECCENTRICITY": 0.0164411,
        "INCLINATION": 53.9462,
        "RA_OF_ASC_NODE": 88.2935,
        "ARG_OF_PERICENTER": 85.0909,
        "MEAN_ANOMALY": 276.7728,
        "EPHEMERIS_TYPE": 0,
        "CLASSIFICATION_TYPE": "U",
        "NORAD_CAT_ID": 32260,
        "ELEMENT_SET_NO": 999,
        "REV_AT_EPOCH": 13281,
        "BSTAR": 0,
        "MEAN_MOTION_DOT": 1.1e-07,
        "MEAN_MOTION_DDOT": 0,
        "norad_id": 32260,
        "name": "GPS BIIRM-4 (PRN 15)",
        "group": "gps-ops",
        "longitude_deg": NaN,
        "latitude_deg": NaN,
        "alt_km": NaN,
        "orbit_class": "HEO",
        "timestamp": "2025-11-30T08:43:09.297643+00:00"
      },
      "geometry": {
        "type": "Point",
        "coordinates": [
          NaN,
          NaN
        ]
      }
    },
    {
      "type": "Feature",
      "properties": {
        "OBJECT_NAME": "GPS BIIRM-5 (PRN 29)",
        "OBJECT_ID": "2007-062A",
        "EPOCH": "2025-11-30T01:46:38.777088",
        "MEAN_MOTION": 2.0057652,
        "ECCENTRICITY": 0.00322,
        "INCLINATION": 55.1935,
        "RA_OF_ASC_NODE": 282.1541,
        "ARG_OF_PERICENTER": 162.9568,
        "MEAN_ANOMALY": 172.309,
        "EPHEMERIS_TYPE": 0,
        "CLASSIFICATION_TYPE": "U",
        "NORAD_CAT_ID": 32384,
        "ELEMENT_SET_NO": 999,
        "REV_AT_EPOCH": 13151,
        "BSTAR": 0,
        "MEAN_MOTION_DOT": -3.9e-07,
        "MEAN_MOTION_DDOT": 0,
        "norad_id": 32384,
        "name": "GPS BIIRM-5 (PRN 29)",
        "group": "gps-ops",
        "longitude_deg": NaN,
        "latitude_deg": NaN,
        "alt_km": NaN,
        "orbit_class": "HEO",
        "timestamp": "2025-11-30T08:43:09.297713+00:00"
      },
      "geometry": {
        "type": "Point",
        "coordinates": [
          NaN,
          NaN
        ]
      }
    },
    {
      "type": "Feature",
      "properties": {
        "OBJECT_NAME": "GPS BIIRM-6 (PRN 07)",
        "OBJECT_ID": "2008-012A",
        "EPOCH": "2025-11-29T17:03:47.338848",
        "MEAN_MOTION": 2.00564982,
        "ECCENTRICITY": 0.0201937,
        "INCLINATION": 54.4755,
        "RA_OF_ASC_NODE": 157.8931,
        "ARG_OF_PERICENTER": 244.8068,
        "MEAN_ANOMALY": 113.1338,
        "EPHEMERIS_TYPE": 0,
        "CLASSIFICATION_TYPE": "U",
        "NORAD_CAT_ID": 32711,
        "ELEMENT_SET_NO": 999,
        "REV_AT_EPOCH": 12975,
        "BSTAR": 0,
        "MEAN_MOTION_DOT": 1.27e-06,
        "MEAN_MOTION_DDOT": 0,
        "norad_id": 32711,
        "name": "GPS BIIRM-6 (PRN 07)",
        "group": "gps-ops",
        "longitude_deg": NaN,
        "latitude_deg": NaN,
        "alt_km": NaN,
        "orbit_class": "HEO",
        "timestamp": "2025-11-30T08:43:09.297762+00:00"
      },
      "geometry": {
        "type": "Point",
        "coordinates": [
          NaN,
          NaN
        ]
      }
    },
    {
      "type": "Feature",
      "properties": {
        "OBJECT_NAME": "GPS BIIRM-8 (PRN 05)",
        "OBJECT_ID": "2009-043A",
        "EPOCH": "2025-11-29T20:41:18.394944",
        "MEAN_MOTION": 2.00566374,
        "ECCENTRICITY": 0.0052164,
        "INCLINATION": 56.082,
        "RA_OF_ASC_NODE": 35.2913,
        "ARG_OF_PERICENTER": 82.1115,
        "MEAN_ANOMALY": 44.9526,
        "EPHEMERIS_TYPE": 0,
        "CLASSIFICATION_TYPE": "U",
        "NORAD_CAT_ID": 35752,
        "ELEMENT_SET_NO": 999,
        "REV_AT_EPOCH": 11936,
        "BSTAR": 0,
        "MEAN_MOTION_DOT": -6.4e-07,
        "MEAN_MOTION_DDOT": 0,
        "norad_id": 35752,
        "name": "GPS BIIRM-8 (PRN 05)",
        "group": "gps-ops",
        "longitude_deg": NaN,
        "latitude_deg": NaN,
        "alt_km": NaN,
        "orbit_class": "HEO",
        "timestamp": "2025-11-30T08:43:09.298184+00:00"
      },
      "geometry": {
        "type": "Point",
        "coordinates": [
          NaN,
          NaN
        ]
      }
    },
    {
      "type": "Feature",
      "properties": {
        "OBJECT_NAME": "GPS BIIF-1  (PRN 25)",
        "OBJECT_ID": "2010-022A",
        "EPOCH": "2025-11-30T00:41:25.780704",
        "MEAN_MOTION": 2.0055246,
        "ECCENTRICITY": 0.012556,
        "INCLINATION": 54.3028,
        "RA_OF_ASC_NODE": 216.5867,
        "ARG_OF_PERICENTER": 64.9325,
        "MEAN_ANOMALY": 301.4244,
        "EPHEMERIS_TYPE": 0,
        "CLASSIFICATION_TYPE": "U",
        "NORAD_CAT_ID": 36585,
        "ELEMENT_SET_NO": 999,
        "REV_AT_EPOCH": 11360,
        "BSTAR": 0,
        "MEAN_MOTION_DOT": 4.9e-07,
        "MEAN_MOTION_DDOT": 0,
        "norad_id": 36585,
        "name": "GPS BIIF-1  (PRN 25)",
        "group": "gps-ops",
        "longitude_deg": NaN,
        "latitude_deg": NaN,
        "alt_km": NaN,
        "orbit_class": "HEO",
        "timestamp": "2025-11-30T08:43:09.298475+00:00"
      },
      "geometry": {
        "type": "Point",
        "coordinates": [
          NaN,
          NaN
        ]
      }
    },
    {
      "type": "Feature",
      "properties": {
        "OBJECT_NAME": "GPS BIIF-3  (PRN 24)",
        "OBJECT_ID": "2012-053A",
        "EPOCH": "2025-11-29T21:19:11.965152",
        "MEAN_MOTION": 2.00564833,
        "ECCENTRICITY": 0.0175416,
        "INCLINATION": 53.5554,
        "RA_OF_ASC_NODE": 151.7651,
        "ARG_OF_PERICENTER": 63.8108,
        "MEAN_ANOMALY": 298.023,
        "EPHEMERIS_TYPE": 0,
        "CLASSIFICATION_TYPE": "U",
        "NORAD_CAT_ID": 38833,
        "ELEMENT_SET_NO": 999,
        "REV_AT_EPOCH": 9544,
        "BSTAR": 0,
        "MEAN_MOTION_DOT": 1.24e-06,
        "MEAN_MOTION_DDOT": 0,
        "norad_id": 38833,
        "name": "GPS BIIF-3  (PRN 24)",
        "group": "gps-ops",
        "longitude_deg": NaN,
        "latitude_deg": NaN,
        "alt_km": NaN,
        "orbit_class": "HEO",
        "timestamp": "2025-11-30T08:43:09.299559+00:00"
      },
      "geometry": {
        "type": "Point",
        "coordinates": [
          NaN,
          NaN
        ]
      }
    },
    {
      "type": "Feature",
      "properties": {
        "OBJECT_NAME": "GPS BIIF-4  (PRN 27)",
        "OBJECT_ID": "2013-023A",
        "EPOCH": "2025-11-29T06:05:12.264288",
        "MEAN_MOTION": 2.00565107,
        "ECCENTRICITY": 0.0137069,
        "INCLINATION": 54.6638,
        "RA_OF_ASC_NODE": 277.1167,
        "ARG_OF_PERICENTER": 48.4652,
        "MEAN_ANOMALY": 312.7048,
        "EPHEMERIS_TYPE": 0,
        "CLASSIFICATION_TYPE": "U",
        "NORAD_CAT_ID": 39166,
        "ELEMENT_SET_NO": 999,
        "REV_AT_EPOCH": 9187,
        "BSTAR": 0,
        "MEAN_MOTION_DOT": -3.4e-07,
        "MEAN_MOTION_DDOT": 0,
        "norad_id": 39166,
        "name": "GPS BIIF-4  (PRN 27)",
        "group": "gps-ops",
        "longitude_deg": NaN,
        "latitude_deg": NaN,
        "alt_km": NaN,
        "orbit_class": "HEO",
        "timestamp": "2025-11-30T08:43:09.299927+00:00"
      },
      "geometry": {
        "type": "Point",
        "coordinates": [
          NaN,
          NaN
        ]
      }
    }
  ]
}