NAVSTAR 59 (USA 192)    
1 29601U 06052A   25333.48528024  .00000034  00000+0  00000+0 0  9995
2 29601  54.9735 221.9244 0087412  87.3049 273.7690  2.00572558139405
NAVSTAR 60 (USA 196)    
1 32260U 07047A   25333.79058105  .00000011  00000+0  00000+0 0  9992
2 32260  53.9462  88.2935 0164411  85.0909 276.7728  2.00564988132813
NAVSTAR 61 (USA 199)    
1 32384U 07062A   25334.07405992 -.00000039  00000+0  00000+0 0  9999
2 32384  55.1935 282.1541 0032200 162.9568 172.3090  2.00576520131517
NAVSTAR 62 (USA 201)    
1 32711U 08012A   25333.71096457  .00000127  00000+0  00000+0 0  9998
2 32711  54.4755 157.8931 0201937 244.8068 113.1338  2.00564982129754
NAVSTAR 64 (USA 206)    
1 35752U 09043A   25333.86201846 -.00000064  00000+0  00000+0 0  9998
2 35752  56.0820  35.2913 0052164  82.1115  44.9526  2.00566374119367
NAVSTAR 65 (USA 213)    
1 36585U 10022A   25334.02877061  .00000049  00000+0  00000+0 0  9991
2 36585  54.3028 216.5867 0125560  64.9325 301.4244  2.00552460113607
NAVSTAR 67 (USA 239)    
1 38833U 12053A   25333.88833293  .00000124  00000+0  00000+0 0  9991
2 38833  53.5554 151.7651 0175416  63.8108 298.0230  2.00564833 95447
NAVSTAR 68 (USA 242)    
1 39166U 13023A   25333.25361417 -.00000034  00000+0  00000+0 0  9995
2 39166  54.6638 277.1167 0137069  48.4652 312.7048  2.00565107 91871
